ONEWEB-0685             
1 54679U 22166AP  26100.19276171 -.00000013  00000+0 -62072-4 0  9997
2 54679  87.9183 257.5285 0001829 103.3192 256.8146 13.21815197162438
ONEWEB-0712             
1 54680U 22166AQ  26100.11872724 -.00000061  00000+0 -19363-3 0  9994
2 54680  87.9057 242.2974 0002312 104.3042 255.8346 13.16592639163102
ONEWEB-0714             
1 54681U 22166AR  26100.19788312 -.00008797  00000+0 -21336-1 0  9997
2 54681  87.9201 257.5216 0002196 102.5986 257.5394 13.21879707162559
ONEWEB-0532             
1 55140U 23004A   26100.22233841  .00000058  00000+0  11667-3 0  9994
2 55140  87.9182  19.3641 0001390  75.6318 284.4968 13.17651422158635
ONEWEB-0533             
1 55141U 23004B   26100.14889629 -.00000306  00000+0 -88500-3 0  9995
2 55141  87.9017   4.1819 0001754  85.3938 274.7391 13.12442169159131
ONEWEB-0541             
1 55142U 23004C   26100.20188805  .00000333  00000+0  90438-3 0  9992
2 55142  87.8918  34.5667 0001822  74.0909 286.0419 13.11415129157037
ONEWEB-0543             
1 55143U 23004D   26100.17848386  .00000048  00000+0  88544-4 0  9995
2 55143  87.9219 348.9961 0002044  83.0339 277.1026 13.18685076160739
ONEWEB-0544             
1 55144U 23004E   26100.17187148 -.00000167  00000+0 -45759-3 0  9992
2 55144  87.9217 348.9961 0001971  74.5368 285.5982 13.18685967160736
ONEWEB-0560             
1 55145U 23004F   26100.16528889  .00000092  00000+0  20042-3 0  9996
2 55145  87.9220 348.9874 0001955  75.8171 284.3178 13.18685091160745
ONEWEB-0565             
1 55146U 23004G   26100.15867740 -.00000202  00000+0 -54413-3 0  9992
2 55146  87.9213 349.0229 0001768  64.6189 295.5126 13.18685731160738
ONEWEB-0567             
1 55147U 23004H   26100.15209374  .00000026  00000+0  33783-4 0  9996
2 55147  87.9222 349.0022 0001866  67.9900 292.1430 13.18685689160739
ONEWEB-0569             
1 55148U 23004J   26100.13388362 -.00000251  00000+0 -72161-3 0  9994
2 55148  87.9001 333.7670 0002442  66.4648 293.6737 13.13469279161241
ONEWEB-0570             
1 55149U 23004K   26100.14217867  .00000066  00000+0  13507-3 0  9998
2 55149  87.9225 349.0020 0001323  72.0676 288.0601 13.18688634160723
ONEWEB-0571             
1 55150U 23004L   26100.13558583 -.00000138  00000+0 -38210-3 0  9992
2 55150  87.9220 349.0022 0002336  49.4867 310.6469 13.18688046160739
ONEWEB-0572             
1 55151U 23004M   26100.17677555  .00000057  00000+0  11288-3 0  9992
2 55151  87.9183  19.3747 0001817  71.3986 288.7343 13.17651372158529
ONEWEB-0573             
1 55152U 23004N   26100.20487057  .00001571  00000+0  39511-2 0  9993
2 55152  87.9216 348.9901 0001713  55.7440 304.3854 13.18676478160739
