[{"OBJECT_NAME":"ONEWEB-0685","OBJECT_ID":"2022-166AP","EPOCH":"2026-04-10T04:37:34.611744","MEAN_MOTION":13.21815197,"ECCENTRICITY":0.0001829,"INCLINATION":87.9183,"RA_OF_ASC_NODE":257.5285,"ARG_OF_PERICENTER":103.3192,"MEAN_ANOMALY":256.8146,"EPHEMERIS_TYPE":0,"CLASSIFICATION_TYPE":"U","NORAD_CAT_ID":54679,"ELEMENT_SET_NO":999,"REV_AT_EPOCH":16243,"BSTAR":-6.207200000000001e-05,"MEAN_MOTION_DOT":-1.3e-07,"MEAN_MOTION_DDOT":0.0},{"OBJECT_NAME":"ONEWEB-0712","OBJECT_ID":"2022-166AQ","EPOCH":"2026-04-10T02:50:58.033536","MEAN_MOTION":13.16592639,"ECCENTRICITY":0.0002312,"INCLINATION":87.9057,"RA_OF_ASC_NODE":242.2974,"ARG_OF_PERICENTER":104.3042,"MEAN_ANOMALY":255.8346,"EPHEMERIS_TYPE":0,"CLASSIFICATION_TYPE":"U","NORAD_CAT_ID":54680,"ELEMENT_SET_NO":999,"REV_AT_EPOCH":16310,"BSTAR":-0.00019363,"MEAN_MOTION_DOT":-6.1e-07,"MEAN_MOTION_DDOT":0.0},{"OBJECT_NAME":"ONEWEB-0714","OBJECT_ID":"2022-166AR","EPOCH":"2026-04-10T04:44:57.101568","MEAN_MOTION":13.21879707,"ECCENTRICITY":0.0002196,"INCLINATION":87.9201,"RA_OF_ASC_NODE":257.5216,"ARG_OF_PERICENTER":102.5986,"MEAN_ANOMALY":257.5394,"EPHEMERIS_TYPE":0,"CLASSIFICATION_TYPE":"U","NORAD_CAT_ID":54681,"ELEMENT_SET_NO":999,"REV_AT_EPOCH":16255,"BSTAR":-0.021336,"MEAN_MOTION_DOT":-8.797e-05,"MEAN_MOTION_DDOT":0.0},{"OBJECT_NAME":"ONEWEB-0532","OBJECT_ID":"2023-004A","EPOCH":"2026-04-10T05:20:10.038624","MEAN_MOTION":13.17651422,"ECCENTRICITY":0.000139,"INCLINATION":87.9182,"RA_OF_ASC_NODE":19.3641,"ARG_OF_PERICENTER":75.6318,"MEAN_ANOMALY":284.4968,"EPHEMERIS_TYPE":0,"CLASSIFICATION_TYPE":"U","NORAD_CAT_ID":55140,"ELEMENT_SET_NO":999,"REV_AT_EPOCH":15863,"BSTAR":0.00011666999999999999,"MEAN_MOTION_DOT":5.8e-07,"MEAN_MOTION_DDOT":0.0},{"OBJECT_NAME":"ONEWEB-0533","OBJECT_ID":"2023-004B","EPOCH":"2026-04-10T03:34:24.639456","MEAN_MOTION":13.12442169,"ECCENTRICITY":0.0001754,"INCLINATION":87.9017,"RA_OF_ASC_NODE":4.1819,"ARG_OF_PERICENTER":85.3938,"MEAN_ANOMALY":274.7391,"EPHEMERIS_TYPE":0,"CLASSIFICATION_TYPE":"U","NORAD_CAT_ID":55141,"ELEMENT_SET_NO":999,"REV_AT_EPOCH":15913,"BSTAR":-0.000885,"MEAN_MOTION_DOT":-3.06e-06,"MEAN_MOTION_DDOT":0.0},{"OBJECT_NAME":"ONEWEB-0541","OBJECT_ID":"2023-004C","EPOCH":"2026-04-10T04:50:43.127520","MEAN_MOTION":13.11415129,"ECCENTRICITY":0.0001822,"INCLINATION":87.8918,"RA_OF_ASC_NODE":34.5667,"ARG_OF_PERICENTER":74.0909,"MEAN_ANOMALY":286.0419,"EPHEMERIS_TYPE":0,"CLASSIFICATION_TYPE":"U","NORAD_CAT_ID":55142,"ELEMENT_SET_NO":999,"REV_AT_EPOCH":15703,"BSTAR":0.00090438,"MEAN_MOTION_DOT":3.33e-06,"MEAN_MOTION_DDOT":0.0},{"OBJECT_NAME":"ONEWEB-0543","OBJECT_ID":"2023-004D","EPOCH":"2026-04-10T04:17:01.005504","MEAN_MOTION":13.18685076,"ECCENTRICITY":0.0002044,"INCLINATION":87.9219,"RA_OF_ASC_NODE":348.9961,"ARG_OF_PERICENTER":83.0339,"MEAN_ANOMALY":277.1026,"EPHEMERIS_TYPE":0,"CLASSIFICATION_TYPE":"U","NORAD_CAT_ID":55143,"ELEMENT_SET_NO":999,"REV_AT_EPOCH":16073,"BSTAR":8.854400000000001e-05,"MEAN_MOTION_DOT":4.8e-07,"MEAN_MOTION_DDOT":0.0},{"OBJECT_NAME":"ONEWEB-0544","OBJECT_ID":"2023-004E","EPOCH":"2026-04-10T04:07:29.695872","MEAN_MOTION":13.18685967,"ECCENTRICITY":0.0001971,"INCLINATION":87.9217,"RA_OF_ASC_NODE":348.9961,"ARG_OF_PERICENTER":74.5368,"MEAN_ANOMALY":285.5982,"EPHEMERIS_TYPE":0,"CLASSIFICATION_TYPE":"U","NORAD_CAT_ID":55144,"ELEMENT_SET_NO":999,"REV_AT_EPOCH":16073,"BSTAR":-0.00045759,"MEAN_MOTION_DOT":-1.67e-06,"MEAN_MOTION_DDOT":0.0},{"OBJECT_NAME":"ONEWEB-0560","OBJECT_ID":"2023-004F","EPOCH":"2026-04-10T03:58:00.960096","MEAN_MOTION":13.18685091,"ECCENTRICITY":0.0001955,"INCLINATION":87.922,"RA_OF_ASC_NODE":348.9874,"ARG_OF_PERICENTER":75.8171,"MEAN_ANOMALY":284.3178,"EPHEMERIS_TYPE":0,"CLASSIFICATION_TYPE":"U","NORAD_CAT_ID":55145,"ELEMENT_SET_NO":999,"REV_AT_EPOCH":16074,"BSTAR":0.00020041999999999998,"MEAN_MOTION_DOT":9.2e-07,"MEAN_MOTION_DDOT":0.0},{"OBJECT_NAME":"ONEWEB-0565","OBJECT_ID":"2023-004G","EPOCH":"2026-04-10T03:48:29.727360","MEAN_MOTION":13.18685731,"ECCENTRICITY":0.0001768,"INCLINATION":87.9213,"RA_OF_ASC_NODE":349.0229,"ARG_OF_PERICENTER":64.6189,"MEAN_ANOMALY":295.5126,"EPHEMERIS_TYPE":0,"CLASSIFICATION_TYPE":"U","NORAD_CAT_ID":55146,"ELEMENT_SET_NO":999,"REV_AT_EPOCH":16073,"BSTAR":-0.00054413,"MEAN_MOTION_DOT":-2.02e-06,"MEAN_MOTION_DDOT":0.0},{"OBJECT_NAME":"ONEWEB-0567","OBJECT_ID":"2023-004H","EPOCH":"2026-04-10T03:39:00.899136","MEAN_MOTION":13.18685689,"ECCENTRICITY":0.0001866,"INCLINATION":87.9222,"RA_OF_ASC_NODE":349.0022,"ARG_OF_PERICENTER":67.99,"MEAN_ANOMALY":292.143,"EPHEMERIS_TYPE":0,"CLASSIFICATION_TYPE":"U","NORAD_CAT_ID":55147,"ELEMENT_SET_NO":999,"REV_AT_EPOCH":16073,"BSTAR":3.3783000000000005e-05,"MEAN_MOTION_DOT":2.6e-07,"MEAN_MOTION_DDOT":0.0},{"OBJECT_NAME":"ONEWEB-0569","OBJECT_ID":"2023-004J","EPOCH":"2026-04-10T03:12:47.544768","MEAN_MOTION":13.13469279,"ECCENTRICITY":0.0002442,"INCLINATION":87.9001,"RA_OF_ASC_NODE":333.767,"ARG_OF_PERICENTER":66.4648,"MEAN_ANOMALY":293.6737,"EPHEMERIS_TYPE":0,"CLASSIFICATION_TYPE":"U","NORAD_CAT_ID":55148,"ELEMENT_SET_NO":999,"REV_AT_EPOCH":16124,"BSTAR":-0.00072161,"MEAN_MOTION_DOT":-2.51e-06,"MEAN_MOTION_DDOT":0.0},{"OBJECT_NAME":"ONEWEB-0570","OBJECT_ID":"2023-004K","EPOCH":"2026-04-10T03:24:44.237088","MEAN_MOTION":13.18688634,"ECCENTRICITY":0.0001323,"INCLINATION":87.9225,"RA_OF_ASC_NODE":349.002,"ARG_OF_PERICENTER":72.0676,"MEAN_ANOMALY":288.0601,"EPHEMERIS_TYPE":0,"CLASSIFICATION_TYPE":"U","NORAD_CAT_ID":55149,"ELEMENT_SET_NO":999,"REV_AT_EPOCH":16072,"BSTAR":0.00013507,"MEAN_MOTION_DOT":6.6e-07,"MEAN_MOTION_DDOT":0.0},{"OBJECT_NAME":"ONEWEB-0571","OBJECT_ID":"2023-004L","EPOCH":"2026-04-10T03:15:14.615712","MEAN_MOTION":13.18688046,"ECCENTRICITY":0.0002336,"INCLINATION":87.922,"RA_OF_ASC_NODE":349.0022,"ARG_OF_PERICENTER":49.4867,"MEAN_ANOMALY":310.6469,"EPHEMERIS_TYPE":0,"CLASSIFICATION_TYPE":"U","NORAD_CAT_ID":55150,"ELEMENT_SET_NO":999,"REV_AT_EPOCH":16073,"BSTAR":-0.0003821,"MEAN_MOTION_DOT":-1.38e-06,"MEAN_MOTION_DDOT":0.0},{"OBJECT_NAME":"ONEWEB-0572","OBJECT_ID":"2023-004M","EPOCH":"2026-04-10T04:14:33.407520","MEAN_MOTION":13.17651372,"ECCENTRICITY":0.0001817,"INCLINATION":87.9183,"RA_OF_ASC_NODE":19.3747,"ARG_OF_PERICENTER":71.3986,"MEAN_ANOMALY":288.7343,"EPHEMERIS_TYPE":0,"CLASSIFICATION_TYPE":"U","NORAD_CAT_ID":55151,"ELEMENT_SET_NO":999,"REV_AT_EPOCH":15852,"BSTAR":0.00011287999999999999,"MEAN_MOTION_DOT":5.7e-07,"MEAN_MOTION_DDOT":0.0},{"OBJECT_NAME":"ONEWEB-0573","OBJECT_ID":"2023-004N","EPOCH":"2026-04-10T04:55:00.817248","MEAN_MOTION":13.18676478,"ECCENTRICITY":0.0001713,"INCLINATION":87.9216,"RA_OF_ASC_NODE":348.9901,"ARG_OF_PERICENTER":55.744,"MEAN_ANOMALY":304.3854,"EPHEMERIS_TYPE":0,"CLASSIFICATION_TYPE":"U","NORAD_CAT_ID":55152,"ELEMENT_SET_NO":999,"REV_AT_EPOCH":16073,"BSTAR":0.0039511,"MEAN_MOTION_DOT":1.571e-05,"MEAN_MOTION_DDOT":0.0}]